EPOCH,MEAN_MOTION,ECCENTRICITY,INCLINATION,RA_OF_ASC_NODE,ARG_OF_PERICENTER,MEAN_ANOMALY,NORAD_CAT_ID,SEMIMAJOR_AXIS,PERIOD,APOAPSIS,PERIAPSIS,OBJECT_TYPE,RCS_SIZE,COUNTRY_CODE,LAUNCH_DATE
1635625261.0,13.83805885,0.0121052,89.9046,87.5009,205.7022,286.2903,42666,7328.556,104.061,1039.134,861.707,DEBRIS,SMALL,US,1963.0
1635656485.0,14.55528723,0.0033842,90.1065,39.7317,31.2074,329.1136,42667,7085.785,98.933,731.63,683.671,DEBRIS,SMALL,US,1966.0
1635666967.0,13.83921209,0.0110397,89.989,268.6076,281.4219,77.4568,42668,7328.149,104.052,1030.914,869.113,DEBRIS,SMALL,US,1968.0
1635688348.0,14.41319603,0.0029132,98.5417,259.4124,213.7264,146.2072,42669,7132.279,99.908,774.922,733.366,DEBRIS,SMALL,ESA,1991.0
1635707297.0,15.07315476,0.0091534,97.7201,345.5817,253.9865,105.1265,42670,6922.544,95.534,607.774,481.044,DEBRIS,SMALL,PRC,2015.0
1635721658.0,14.5566839,0.0159679,97.9693,209.1819,325.8694,33.2317,42671,7085.332,98.924,820.335,594.059,DEBRIS,SMALL,PRC,2015.0
1635730442.0,14.59517353,0.0157996,98.1334,243.7632,310.2962,48.4517,42672,7072.87,98.663,806.483,582.986,DEBRIS,SMALL,PRC,2015.0
1635655540.0,14.85198156,0.0004584,97.9962,309.5442,139.0937,221.0622,42673,6991.101,96.957,616.171,609.761,DEBRIS,SMALL,PRC,2015.0
1635462570.0,15.27559425,0.0006334,31.0,203.4319,325.6313,34.392,42674,6861.248,94.268,487.459,478.767,DEBRIS,SMALL,JPN,2016.0
1635687966.0,14.22770494,0.0258306,98.1739,225.869,64.9809,297.7955,42676,7194.135,101.211,1001.829,630.172,DEBRIS,SMALL,PRC,2016.0
1635623022.0,14.21767423,0.0258726,97.9874,191.3399,44.6296,317.5396,42677,7197.519,101.282,1005.602,633.165,DEBRIS,SMALL,PRC,2016.0
1635703529.0,14.45411765,0.0009891,98.3735,317.6785,84.5345,275.6975,42678,7118.811,99.626,747.717,733.635,DEBRIS,SMALL,PRC,2016.0
1635708707.0,14.45313532,0.0007986,98.3747,317.5629,86.8545,273.356,42679,7119.133,99.632,746.684,735.313,DEBRIS,SMALL,PRC,2016.0
1635696530.0,14.42392492,0.0018069,98.4121,302.9577,192.8668,167.2063,42680,7128.742,99.834,763.488,737.726,DEBRIS,SMALL,PRC,2016.0
1635673885.0,15.34961794,0.0007979,51.6378,274.8125,318.1172,41.9199,42752,6839.171,93.813,466.493,455.579,PAYLOAD,MEDIUM,US,2017.0
1635732312.0,15.384674,0.0006812,51.6363,256.3643,335.5339,24.532,42753,6828.778,93.6,455.294,445.991,PAYLOAD,SMALL,US,2017.0
1635738934.0,15.34868067,0.0007889,51.6367,272.2971,323.1034,36.9405,42754,6839.449,93.819,466.71,455.919,PAYLOAD,SMALL,US,2017.0
1635734244.0,15.38309548,0.0006668,51.6385,256.3604,337.8931,36.499,42755,6829.245,93.609,455.664,446.556,PAYLOAD,SMALL,US,2017.0
1635731466.0,15.09407257,0.0009648,43.0166,162.867,293.9619,208.5523,42758,6916.147,95.402,544.685,531.339,PAYLOAD,LARGE,PRC,2017.0
1635727146.0,15.10491983,0.000941,43.0163,149.8847,298.0153,199.6474,42759,6912.836,95.333,541.206,528.196,PAYLOAD,MEDIUM,PRC,2017.0
1635725724.0,15.11108866,0.0008944,43.0147,146.1812,319.7211,176.5692,42760,6910.954,95.294,539.0,526.638,PAYLOAD,MEDIUM,ARGN,2017.0
1635725632.0,15.1057874,0.0009776,43.0163,148.934,300.2213,194.2617,42761,6912.571,95.328,541.194,527.678,PAYLOAD,MEDIUM,PRC,2017.0
1635731298.0,13.15144221,0.1387059,25.5725,217.2893,161.6119,204.0057,42764,7581.461,109.494,2254.92,151.733,ROCKET BODY,LARGE,PRC,2017.0
1635708726.0,15.2564735,0.0012045,97.2341,350.0329,60.7255,299.5186,42765,6866.979,94.386,497.116,480.573,PAYLOAD,SMALL,UK,2017.0
1635707810.0,15.23328665,0.0016245,97.2353,346.0109,59.0084,301.2747,42766,6873.946,94.53,506.977,484.644,PAYLOAD,MEDIUM,IND,2017.0
1635730581.0,15.19236106,0.0010071,97.4884,3.116,92.0138,351.4892,42767,6886.285,94.784,515.085,501.215,PAYLOAD,LARGE,IND,2017.0
1635708336.0,15.27689772,0.0014291,97.2422,351.3121,48.5546,311.6919,42768,6860.857,94.26,492.527,472.918,PAYLOAD,SMALL,LTU,2017.0
1635713279.0,15.21900532,0.0016814,97.2315,344.2389,61.3066,298.9873,42769,6878.245,94.619,511.675,488.545,PAYLOAD,MEDIUM,JPN,2017.0
1635667285.0,15.25470008,0.0014675,97.2373,348.4121,55.1436,305.118,42771,6867.511,94.397,499.455,479.298,PAYLOAD,SMALL,US,2017.0
1635710924.0,15.25721598,0.0014107,97.2348,348.9274,51.9136,308.3373,42772,6866.756,94.382,498.308,478.935,PAYLOAD,SMALL,US,2017.0
1635716549.0,15.2466251,0.0014406,97.2422,349.6303,52.5695,307.6852,42773,6869.936,94.447,501.698,481.904,PAYLOAD,SMALL,US,2017.0
1635715958.0,15.25678224,0.0013994,97.2372,349.3181,51.9606,308.2893,42774,6866.887,94.384,498.361,479.142,PAYLOAD,SMALL,US,2017.0
1635700550.0,15.23166635,0.0014807,97.232,346.1008,58.8238,301.4449,42775,6874.433,94.54,506.477,486.119,PAYLOAD,SMALL,FIN,2017.0
1635721252.0,15.23486035,0.001454,97.2332,346.8803,57.5728,302.6913,42776,6873.472,94.52,505.331,485.343,PAYLOAD,SMALL,IT,2017.0
1635711719.0,15.26774086,0.0012521,97.2407,351.3333,50.7938,309.4411,42777,6863.6,94.317,494.059,476.871,PAYLOAD,SMALL,GER,2017.0
1635722791.0,15.24190542,0.0013088,97.2401,349.0764,59.7609,300.4923,42778,6871.354,94.476,502.212,484.226,PAYLOAD,MEDIUM,IT,2017.0
1635710978.0,15.27525631,0.0011931,97.2422,352.7298,54.2744,305.9604,42779,6861.349,94.27,491.4,475.028,PAYLOAD,SMALL,US,2017.0
1635713039.0,15.25219466,0.0012611,97.241,350.5589,58.7005,301.5466,42780,6868.263,94.413,498.79,481.467,PAYLOAD,SMALL,US,2017.0
1635695840.0,15.2551081,0.0012662,97.2426,351.2084,58.2647,301.9824,42781,6867.389,94.395,497.949,480.559,PAYLOAD,SMALL,US,2017.0
1635721232.0,15.26692225,0.0011887,97.2385,351.7564,56.0281,304.2086,42782,6863.846,94.322,493.87,477.552,PAYLOAD,SMALL,US,2017.0
1635710465.0,15.24479682,0.0013024,97.2346,348.6812,64.2827,295.9754,42783,6870.485,94.458,501.298,483.402,PAYLOAD,SMALL,UK,2017.0
1635721823.0,15.25145948,0.0012714,97.235,349.6269,62.0397,298.2126,42784,6868.484,94.417,499.082,481.617,PAYLOAD,SMALL,ASRA,2017.0
1635704732.0,15.24464005,0.0012899,97.2351,348.6699,65.132,295.1258,42785,6870.532,94.459,501.26,483.535,PAYLOAD,SMALL,UK,2017.0
1635710322.0,15.24467366,0.0012841,97.2351,348.7248,65.385,294.8724,42786,6870.522,94.459,501.21,483.565,PAYLOAD,SMALL,UK,2017.0
1635711735.0,15.27491069,0.0012495,97.2393,352.4074,47.7997,312.43,42787,6861.452,94.272,491.891,474.744,PAYLOAD,SMALL,PRC,2017.0
1635709461.0,15.2609852,0.0012121,97.236,350.6681,59.6806,300.563,42788,6865.626,94.358,495.813,479.169,PAYLOAD,SMALL,CHLE,2017.0
1635708574.0,15.25765661,0.0012052,97.2354,350.2998,60.3186,299.9251,42789,6866.624,94.379,496.765,480.214,PAYLOAD,SMALL,CZCH,2017.0
1635711470.0,15.27464424,0.0011204,97.2387,352.391,55.8295,304.4005,42790,6861.532,94.274,491.085,475.71,PAYLOAD,SMALL,CZCH,2017.0
1635679203.0,15.2564075,0.0011795,97.2352,349.9646,62.0706,298.1726,42791,6866.999,94.387,496.964,480.764,PAYLOAD,MEDIUM,CIS,2017.0
1635720896.0,15.26051707,0.0011651,97.2356,350.8744,60.0592,300.1802,42792,6865.766,94.361,495.63,479.632,PAYLOAD,SMALL,FR,2017.0
1635678946.0,15.246404,0.0011309,97.2327,348.919,66.066,294.1762,42793,6870.002,94.449,499.637,484.098,PAYLOAD,MEDIUM,US,2017.0
1635704140.0,14.91744054,0.0126364,97.4574,317.4332,129.7522,231.4913,42794,6970.634,96.531,680.583,504.416,PAYLOAD,SMALL,IT,2017.0
1635711323.0,15.28437226,0.0005868,97.2181,348.9781,180.3033,179.8204,42795,6858.62,94.214,484.51,476.461,PAYLOAD,SMALL,US,2017.0
1635761000.0,15.8446945,0.0072298,97.8603,115.7352,292.2587,67.1025,42798,6695.956,90.882,366.231,269.411,PAYLOAD,LARGE,CIS,2017.0
1635697520.0,14.34218537,0.0002417,86.3931,308.1014,97.6968,262.4502,42803,7155.802,100.403,779.396,775.937,PAYLOAD,LARGE,US,2017.0
1635707132.0,14.34217535,0.0002106,86.3971,339.6195,99.1845,260.9589,42804,7155.805,100.403,779.177,776.163,PAYLOAD,LARGE,US,2017.0
1635696972.0,14.34216482,0.0002492,86.392,308.1055,97.741,262.4069,42805,7155.808,100.403,779.457,775.89,PAYLOAD,LARGE,US,2017.0
1635698220.0,14.43277866,0.0002177,86.4459,307.9742,147.7689,212.3646,42806,7125.826,99.773,749.242,746.14,PAYLOAD,LARGE,US,2017.0
1635703843.0,14.34217482,0.0001897,86.3972,339.6408,94.6402,265.501,42807,7155.805,100.403,779.028,776.313,PAYLOAD,LARGE,US,2017.0
1635705487.0,14.34218111,0.0002555,86.397,339.6052,94.7633,265.3854,42808,7155.803,100.403,779.496,775.84,PAYLOAD,LARGE,US,2017.0
1635707678.0,14.34216098,0.0002234,86.3972,339.6194,96.5577,263.5873,42809,7155.81,100.403,779.273,776.076,PAYLOAD,LARGE,US,2017.0
1635698492.0,14.43281548,0.0002443,86.4456,276.3667,81.946,278.2018,42810,7125.814,99.773,749.42,745.938,PAYLOAD,LARGE,US,2017.0
1635712907.0,14.34217031,0.0002469,86.4014,11.1227,108.7838,251.3626,42811,7155.807,100.403,779.438,775.905,PAYLOAD,LARGE,US,2017.0
1635721380.0,14.34217803,0.0002182,86.3972,339.5711,98.2064,261.938,42812,7155.804,100.403,779.23,776.108,PAYLOAD,LARGE,US,2017.0
1635766873.0,15.19622835,0.0001773,97.4366,212.4776,79.2288,93.453,42825,6885.117,94.76,508.202,505.761,PAYLOAD,LARGE,CIS,2017.0
1635712164.0,14.91496979,0.001608,97.4509,167.1191,52.4615,307.8063,42826,6971.404,96.547,604.479,582.059,PAYLOAD,MEDIUM,NOR,2017.0
1635708269.0,14.91824508,0.001625,97.4512,167.7118,51.6732,308.5945,42827,6970.384,96.526,603.576,580.922,TBA,SMALL,TBD,2017.0
1635708492.0,14.92023093,0.0015551,97.4559,168.6905,52.4301,307.8329,42828,6969.765,96.513,602.469,580.791,PAYLOAD,MEDIUM,NOR,2017.0
1635709140.0,14.91384139,0.0015445,97.4469,167.003,55.2262,305.0409,42829,6971.756,96.555,604.389,582.853,PAYLOAD,MEDIUM,GER,2017.0
1635709118.0,14.9321997,0.0015304,97.4606,170.1898,46.6711,313.5782,42830,6966.04,96.436,598.566,577.244,TBA,SMALL,TBD,2017.0
1635706774.0,14.91381076,0.0015443,97.4494,167.2378,55.5286,304.7399,42831,6971.765,96.555,604.397,582.864,PAYLOAD,MEDIUM,GER,2017.0
1635709655.0,14.91613086,0.0015056,97.4486,167.6389,52.687,307.5719,42832,6971.042,96.54,603.403,582.412,TBA,SMALL,TBD,2017.0
1635710918.0,14.91657673,0.0015019,97.4487,167.764,52.8331,307.4257,42833,6970.903,96.537,603.238,582.299,TBA,SMALL,TBD,2017.0
1635712893.0,14.91662076,0.0014714,97.449,167.8227,56.1547,304.1071,42834,6970.89,96.537,603.012,582.498,TBA,MEDIUM,TBD,2017.0
1635707864.0,14.91462307,0.0014502,97.4467,167.3079,53.7802,306.4755,42835,6971.512,96.55,603.487,583.267,PAYLOAD,MEDIUM,JPN,2017.0
